{
  "type": "FeatureCollection",
  "features": [
    {
      "type": "Feature",
      "properties": {
        "norad_id": 41599,
        "name": "CARTOSAT-2C",
        "group": "resource",
        "lat": 56.222989332700436,
        "lon": 46.944780021560256,
        "alt_km": 497.17653546813744,
        "timestamp": "2025-12-27T03:58:43.835409+00:00",
        "meta_object_name": "CARTOSAT-2C",
        "meta_object_id": "2016-040A",
        "meta_epoch": "2025-12-26T21:24:23.525280",
        "meta_mean_motion": 15.19244615,
        "meta_eccentricity": 0.0010588,
        "meta_inclination": 97.4746,
        "meta_ra_of_asc_node": 57.9941,
        "meta_arg_of_pericenter": 18.1361,
        "meta_mean_anomaly": 342.0249,
        "meta_ephemeris_type": 0,
        "meta_classification_type": "U",
        "meta_norad_cat_id": 41599,
        "meta_element_set_no": 999,
        "meta_rev_at_epoch": 52755,
        "meta_bstar": 0.00018495,
        "meta_mean_motion_dot": 3.833e-05,
        "meta_mean_motion_ddot": 0,
        "tle_line1": "1 41599U 16040A   25360.89193895  .00003833  00000+0  18495-3 0  9993",
        "tle_line2": "2 41599  97.4746  57.9941 0010588  18.1361 342.0249 15.19244615527550"
      },
      "geometry": {
        "type": "Point",
        "coordinates": [
          46.944780021560256,
          56.222989332700436
        ]
      }
    },
    {
      "type": "Feature",
      "properties": {
        "norad_id": 41601,
        "name": "SKYSAT-C1",
        "group": "resource",
        "lat": 82.78319357541473,
        "lon": -67.24438076926847,
        "alt_km": 460.29109313108165,
        "timestamp": "2025-12-27T03:58:43.835418+00:00",
        "meta_object_name": "SKYSAT-C1",
        "meta_object_id": "2016-040C",
        "meta_epoch": "2025-12-26T15:02:45.250368",
        "meta_mean_motion": 15.32840769,
        "meta_eccentricity": 7.87e-05,
        "meta_inclination": 96.9809,
        "meta_ra_of_asc_node": 36.8576,
        "meta_arg_of_pericenter": 308.5435,
        "meta_mean_anomaly": 51.5738,
        "meta_ephemeris_type": 0,
        "meta_classification_type": "U",
        "meta_norad_cat_id": 41601,
        "meta_element_set_no": 999,
        "meta_rev_at_epoch": 53140,
        "meta_bstar": 0.0002948,
        "meta_mean_motion_dot": 9.28e-05,
        "meta_mean_motion_ddot": 0,
        "tle_line1": "1 41601U 16040C   25360.62691262  .00009280  00000+0  29480-3 0  9997",
        "tle_line2": "2 41601  96.9809  36.8576 0000787 308.5435  51.5738 15.32840769531407"
      },
      "geometry": {
        "type": "Point",
        "coordinates": [
          -67.24438076926847,
          82.78319357541473
        ]
      }
    },
    {
      "type": "Feature",
      "properties": {
        "norad_id": 41603,
        "name": "LAPAN-A3",
        "group": "resource",
        "lat": 1.6828753052772114,
        "lon": 178.4094429016741,
        "alt_km": 474.273450880215,
        "timestamp": "2025-12-27T03:58:43.835428+00:00",
        "meta_object_name": "LAPAN-A3",
        "meta_object_id": "2016-040E",
        "meta_epoch": "2025-12-26T20:55:50.680704",
        "meta_mean_motion": 15.31669355,
        "meta_eccentricity": 0.0008641,
        "meta_inclination": 97.1437,
        "meta_ra_of_asc_node": 357.9152,
        "meta_arg_of_pericenter": 274.7043,
        "meta_mean_anomaly": 85.3212,
        "meta_ephemeris_type": 0,
        "meta_classification_type": "U",
        "meta_norad_cat_id": 41603,
        "meta_element_set_no": 999,
        "meta_rev_at_epoch": 52842,
        "meta_bstar": 0.00015841,
        "meta_mean_motion_dot": 4.774e-05,
        "meta_mean_motion_ddot": 0,
        "tle_line1": "1 41603U 16040E   25360.87211436  .00004774  00000+0  15841-3 0  9996",
        "tle_line2": "2 41603  97.1437 357.9152 0008641 274.7043  85.3212 15.31669355528421"
      },
      "geometry": {
        "type": "Point",
        "coordinates": [
          178.4094429016741,
          1.6828753052772114
        ]
      }
    },
    {
      "type": "Feature",
      "properties": {
        "norad_id": 41604,
        "name": "BIROS",
        "group": "resource",
        "lat": -76.36116358099743,
        "lon": 63.978772959541075,
        "alt_km": 296.0647914251358,
        "timestamp": "2025-12-27T03:58:43.835437+00:00",
        "meta_object_name": "BIROS",
        "meta_object_id": "2016-040F",
        "meta_epoch": "2025-12-26T14:45:38.450304",
        "meta_mean_motion": 15.95497863,
        "meta_eccentricity": 0.000398,
        "meta_inclination": 97.0651,
        "meta_ra_of_asc_node": 32.6597,
        "meta_arg_of_pericenter": 120.7736,
        "meta_mean_anomaly": 239.3933,
        "meta_ephemeris_type": 0,
        "meta_classification_type": "U",
        "meta_norad_cat_id": 41604,
        "meta_element_set_no": 999,
        "meta_rev_at_epoch": 53093,
        "meta_bstar": 0.00064877,
        "meta_mean_motion_dot": 0.00256097,
        "meta_mean_motion_ddot": 2.75e-05,
        "tle_line1": "1 41604U 16040F   25360.61502836  .00256097  27500-4  64877-3 0  9995",
        "tle_line2": "2 41604  97.0651  32.6597 0003980 120.7736 239.3933 15.95497863530932"
      },
      "geometry": {
        "type": "Point",
        "coordinates": [
          63.978772959541075,
          -76.36116358099743
        ]
      }
    },
    {
      "type": "Feature",
      "properties": {
        "norad_id": 41727,
        "name": "GAOFEN-3",
        "group": "resource",
        "lat": 1.0273045731098704,
        "lon": 6.379789847124161,
        "alt_km": 753.5518850199205,
        "timestamp": "2025-12-27T03:58:43.835447+00:00",
        "meta_object_name": "GAOFEN-3",
        "meta_object_id": "2016-049A",
        "meta_epoch": "2025-12-26T21:18:49.521888",
        "meta_mean_motion": 14.42216474,
        "meta_eccentricity": 0.0001064,
        "meta_inclination": 98.4042,
        "meta_ra_of_asc_node": 6.2582,
        "meta_arg_of_pericenter": 55.4171,
        "meta_mean_anomaly": 304.7119,
        "meta_ephemeris_type": 0,
        "meta_classification_type": "U",
        "meta_norad_cat_id": 41727,
        "meta_element_set_no": 999,
        "meta_rev_at_epoch": 49381,
        "meta_bstar": -1.0439e-05,
        "meta_mean_motion_dot": -7.8e-07,
        "meta_mean_motion_ddot": 0,
        "tle_line1": "1 41727U 16049A   25360.88807317 -.00000078  00000+0 -10439-4 0  9996",
        "tle_line2": "2 41727  98.4042   6.2582 0001064  55.4171 304.7119 14.42216474493812"
      },
      "geometry": {
        "type": "Point",
        "coordinates": [
          6.379789847124161,
          1.0273045731098704
        ]
      }
    },
    {
      "type": "Feature",
      "properties": {
        "norad_id": 41771,
        "name": "SKYSAT-C4",
        "group": "resource",
        "lat": 8.077731982643103,
        "lon": -153.35609684110952,
        "alt_km": 439.16530640483506,
        "timestamp": "2025-12-27T03:58:43.835456+00:00",
        "meta_object_name": "SKYSAT-C4",
        "meta_object_id": "2016-058B",
        "meta_epoch": "2025-12-26T13:13:33.091680",
        "meta_mean_motion": 15.4264534,
        "meta_eccentricity": 0.0002638,
        "meta_inclination": 96.9364,
        "meta_ra_of_asc_node": 25.0687,
        "meta_arg_of_pericenter": 121.6623,
        "meta_mean_anomaly": 238.4883,
        "meta_ephemeris_type": 0,
        "meta_classification_type": "U",
        "meta_norad_cat_id": 41771,
        "meta_element_set_no": 999,
        "meta_rev_at_epoch": 51880,
        "meta_bstar": 0.00036601,
        "meta_mean_motion_dot": 0.00015874,
        "meta_mean_motion_ddot": 0,
        "tle_line1": "1 41771U 16058B   25360.55107745  .00015874  00000+0  36601-3 0  9993",
        "tle_line2": "2 41771  96.9364  25.0687 0002638 121.6623 238.4883 15.42645340518809"
      },
      "geometry": {
        "type": "Point",
        "coordinates": [
          -153.35609684110952,
          8.077731982643103
        ]
      }
    },
    {
      "type": "Feature",
      "properties": {
        "norad_id": 41772,
        "name": "SKYSAT-C5",
        "group": "resource",
        "lat": 12.60206030419223,
        "lon": 42.722717657185676,
        "alt_km": 467.2533286128255,
        "timestamp": "2025-12-27T03:58:43.835465+00:00",
        "meta_object_name": "SKYSAT-C5",
        "meta_object_id": "2016-058C",
        "meta_epoch": "2025-12-26T16:57:56.362176",
        "meta_mean_motion": 15.34129911,
        "meta_eccentricity": 0.0004076,
        "meta_inclination": 97.0741,
        "meta_ra_of_asc_node": 43.8739,
        "meta_arg_of_pericenter": 223.4884,
        "meta_mean_anomaly": 136.6039,
        "meta_ephemeris_type": 0,
        "meta_classification_type": "U",
        "meta_norad_cat_id": 41772,
        "meta_element_set_no": 999,
        "meta_rev_at_epoch": 51730,
        "meta_bstar": 0.00028723,
        "meta_mean_motion_dot": 9.416e-05,
        "meta_mean_motion_ddot": 0,
        "tle_line1": "1 41772U 16058C   25360.70690234  .00009416  00000+0  28723-3 0  9992",
        "tle_line2": "2 41772  97.0741  43.8739 0004076 223.4884 136.6039 15.34129911517303"
      },
      "geometry": {
        "type": "Point",
        "coordinates": [
          42.722717657185676,
          12.60206030419223
        ]
      }
    }
  ]
}